{
  "fetched_at": "2026-06-19T02:51:11.945753+00:00",
  "satellites": {
    "57166": {
      "name": "Meteor M2-3",
      "tle_line1": "1 57166U 23091A   26169.85502900 -.00000011  00000+0  13884-4 0  9993",
      "tle_line2": "2 57166  98.6082 224.7993 0004441 151.1805 208.9620 14.24046937154759"
    },
    "59051": {
      "name": "Meteor M2-4",
      "tle_line1": "1 59051U 24039A   26169.87164233  .00000003  00000+0  20866-4 0  9994",
      "tle_line2": "2 59051  98.7017 129.1485 0007381 156.3184 203.8335 14.22429672119500"
    },
    "38771": {
      "name": "MetOp-B",
      "tle_line1": "1 38771U 12049A   26169.80862501  .00000080  00000+0  56286-4 0  9994",
      "tle_line2": "2 38771  98.6504 221.2756 0002131  15.4755 344.6487 14.21433124713494"
    },
    "43689": {
      "name": "MetOp-C",
      "tle_line1": "1 43689U 18087A   26169.82773191  .00000066  00000+0  50110-4 0  9998",
      "tle_line2": "2 43689  98.6644 229.4014 0001818 127.5094 232.6249 14.21512480395066"
    },
    "60543": {
      "name": "Arctic Weather Satellite",
      "tle_line1": "1 60543U 24149CD  26169.76563348  .00000587  00000+0  66748-4 0  9998",
      "tle_line2": "2 60543  97.6804 240.1860 0003583  99.7538 260.4084 14.89784390 99538"
    }
  }
}